NORAD_CAT_ID,OBJECT_NAME,OBJECT_TYPE,EPOCH,MEAN_MOTION,ECCENTRICITY,INCLINATION,RA_OF_ASC_NODE,ARG_OF_PERICENTER,MEAN_ANOMALY,BSTAR,MEAN_MOTION_DOT,MEAN_MOTION_DDOT,TLE_LINE0,TLE_LINE1,TLE_LINE2,SEMIMAJOR_AXIS,PERIOD,APOGEE,PERIGEE,DECAYED
53545.0,STARLINK-4475,PAYLOAD,2023-05-06 04:30:13,15.08845452,0.0001115,53.2187,46.1382,95.8134,264.2985,8.1031e-05,1.002e-05,0.0,0 STARLINK-4475,1 53545U 22101U   23126.18765904  .00001002  00000-0  81031-4 0  9992,2 53545  53.2187  46.1382 0001115  95.8134 264.2985 15.08845452 40217,6917.864,95.437,540.5,538.957,0.0
53545.0,STARLINK-4475,PAYLOAD,2023-05-07 04:21:00,15.08853406,0.0001164,53.2179,41.6778,90.9272,269.1853,9.1857e-05,1.175e-05,0.0,0 STARLINK-4475,1 53545U 22101U   23127.18125284  .00001175  00000-0  91857-4 0  9992,2 53545  53.2179  41.6778 0001164  90.9272 269.1853 15.08853406 39674,6917.839,95.437,540.51,538.899,0.0
53545.0,STARLINK-4475,PAYLOAD,2023-05-07 21:50:16,15.08827488,0.0001046,53.2171,38.4081,105.7446,254.3661,-6.6202e-05,-1.341e-05,0.0,0 STARLINK-4475,1 53545U 22101U   23127.90991633 -.00001341  00000-0 -66202-4 0  9994,2 53545  53.2171  38.4081 0001046 105.7446 254.3661 15.08827488 40478,6917.919,95.438,540.507,539.06,0.0
53545.0,STARLINK-4475,PAYLOAD,2023-05-08 01:01:02,15.08829989,8.84e-05,53.217,37.8146,92.707,267.4024,-4.9273e-05,-1.072e-05,0.0,0 STARLINK-4475,1 53545U 22101U   23128.04239541 -.00001072  00000-0 -49273-4 0  9993,2 53545  53.2170  37.8146 0000884  92.7070 267.4024 15.08829989 39800,6917.911,95.438,540.388,539.164,0.0
53545.0,STARLINK-4475,PAYLOAD,2023-05-08 10:33:21,15.08837279,9.21e-05,53.2176,36.0293,90.7739,269.3359,3.0567e-05,1.99e-06,0.0,0 STARLINK-4475,1 53545U 22101U   23128.43983054  .00000199  00000-0  30567-4 0  9994,2 53545  53.2176  36.0293 0000921  90.7739 269.3359 15.08837279 39861,6917.889,95.438,540.391,539.117,0.0
53545.0,STARLINK-4475,PAYLOAD,2023-05-08 21:41:02,15.08848969,8.28e-05,53.2175,33.9481,87.651,272.4576,5.6537e-05,6.12e-06,0.0,0 STARLINK-4475,1 53545U 22101U   23128.90350383  .00000612  00000-0  56537-4 0  9994,2 53545  53.2175  33.9481 0000828  87.6510 272.4576 15.08848969 40623,6917.853,95.437,540.291,539.145,0.0
53545.0,STARLINK-4475,PAYLOAD,2023-05-09 04:02:34,15.08857373,8.43e-05,53.2172,32.7585,82.3074,277.8014,0.00028968,4.328e-05,0.0,0 STARLINK-4475,1 53545U 22101U   23129.16845868  .00004328  00000-0  28968-3 0  9994,2 53545  53.2172  32.7585 0000843  82.3074 277.8014 15.08857373 40665,6917.827,95.436,540.275,539.109,0.0
53545.0,STARLINK-4475,PAYLOAD,2023-05-10 00:42:36,15.08848426,7.99e-05,53.2169,28.893,84.8142,275.2941,0.00025213,3.728e-05,0.0,0 STARLINK-4475,1 53545U 22101U   23130.02958580  .00003728  00000-0  25213-3 0  9990,2 53545  53.2169  28.8930 0000799  84.8142 275.2941 15.08848426 40798,6917.855,95.437,540.272,539.167,0.0
53545.0,STARLINK-4475,PAYLOAD,2023-05-11 00:33:23,15.08850469,9.59e-05,53.2164,24.4337,115.84,244.2692,0.00018601,2.675e-05,0.0,0 STARLINK-4475,1 53545U 22101U   23131.02318303  .00002675  00000-0  18601-3 0  9997,2 53545  53.2164  24.4337 0000959 115.8400 244.2692 15.08850469 40942,6917.848,95.437,540.377,539.05,0.0
53545.0,STARLINK-4475,PAYLOAD,2023-05-11 22:48:47,15.0883626,0.0001136,53.2158,20.2729,69.4173,290.6941,0.00010804,1.432e-05,0.0,0 STARLINK-4475,1 53545U 22101U   23131.95055363  .00001432  00000-0  10804-3 0  9990,2 53545  53.2158  20.2729 0001136  69.4173 290.6941 15.08836260 40397,6917.892,95.438,540.543,538.971,0.0
53545.0,STARLINK-4475,PAYLOAD,2023-05-12 21:04:11,15.08855185,8.82e-05,53.2167,16.1053,95.4141,264.6952,0.00040608,6.184e-05,0.0,0 STARLINK-4475,1 53545U 22101U   23132.87790704  .00006184  00000-0  40608-3 0  9991,2 53545  53.2167  16.1053 0000882  95.4141 264.6952 15.08855185 40538,6917.834,95.437,540.309,539.089,0.0
53545.0,STARLINK-4475,PAYLOAD,2023-05-13 01:50:20,15.08867855,8.7e-05,53.2166,15.2141,90.8561,269.253,0.00092239,0.00014434,0.0,0 STARLINK-4475,1 53545U 22101U   23133.07662476  .00014434  00000-0  92239-3 0  9992,2 53545  53.2166  15.2141 0000870  90.8561 269.2530 15.08867855 40560,6917.795,95.436,540.262,539.058,0.0
53545.0,STARLINK-4475,PAYLOAD,2023-05-13 19:19:35,15.08845666,9.71e-05,53.2172,11.9419,88.0417,272.0687,0.00022192,3.246e-05,0.0,0 STARLINK-4475,1 53545U 22101U   23133.80526852  .00003246  00000-0  22192-3 0  9990,2 53545  53.2172  11.9419 0000971  88.0417 272.0687 15.08845666 40672,6917.863,95.437,540.4,539.056,0.0
53545.0,STARLINK-4475,PAYLOAD,2023-05-13 20:54:58,15.08842237,0.0001025,53.2175,11.6446,80.5311,279.5797,0.00012734,1.74e-05,0.0,0 STARLINK-4475,1 53545U 22101U   23133.87150915  .00001740  00000-0  12734-3 0  9998,2 53545  53.2175  11.6446 0001025  80.5311 279.5797 15.08842237 41376,6917.874,95.437,540.448,539.029,0.0
53545.0,STARLINK-4475,PAYLOAD,2023-05-14 01:41:07,15.08846044,0.0001004,53.2165,10.7539,86.8721,273.2386,0.00038674,5.873e-05,0.0,0 STARLINK-4475,1 53545U 22101U   23134.07022888  .00005873  00000-0  38674-3 0  9990,2 53545  53.2165  10.7539 0001004  86.8721 273.2386 15.08846044 41408,6917.862,95.437,540.421,539.032,0.0
53545.0,STARLINK-4475,PAYLOAD,2023-05-14 20:45:45,15.08841302,0.0001025,53.2162,7.1869,86.3834,273.7275,9.6655e-05,1.251e-05,0.0,0 STARLINK-4475,1 53545U 22101U   23134.86511118  .00001251  00000-0  96655-4 0  9996,2 53545  53.2162   7.1869 0001025  86.3834 273.7275 15.08841302 40834,6917.876,95.437,540.45,539.032,0.0
53545.0,STARLINK-4475,PAYLOAD,2023-05-15 07:53:27,15.08837452,9.12e-05,53.2156,5.1064,89.0778,271.0319,3.339e-05,2.44e-06,0.0,0 STARLINK-4475,1 53545U 22101U   23135.32879274  .00000244  00000-0  33390-4 0  9996,2 53545  53.2156   5.1064 0000912  89.0778 271.0319 15.08837452 41598,6917.888,95.438,540.384,539.122,0.0
53545.0,STARLINK-4475,PAYLOAD,2023-05-15 15:50:23,15.08833087,0.000104,53.2155,3.6192,86.3463,273.7648,4.7863e-05,4.74e-06,0.0,0 STARLINK-4475,1 53545U 22101U   23135.65999658  .00000474  00000-0  47863-4 0  9996,2 53545  53.2155   3.6192 0001040  86.3463 273.7648 15.08833087 40959,6917.902,95.438,540.486,539.047,0.0
53545.0,STARLINK-4475,PAYLOAD,2023-05-15 22:11:56,15.0883632,0.0001068,53.2156,2.4296,84.9685,275.1429,0.0001028,1.348e-05,0.0,0 STARLINK-4475,1 53545U 22101U   23135.92495657  .00001348  00000-0  10280-3 0  9999,2 53545  53.2156   2.4296 0001068  84.9685 275.1429 15.08836320 41689,6917.892,95.438,540.495,539.018,0.0
53545.0,STARLINK-4475,PAYLOAD,2023-05-16 22:02:43,15.08839021,0.0001078,53.2166,357.9701,83.7451,276.3664,8.0953e-05,1.001e-05,0.0,0 STARLINK-4475,1 53545U 22101U   23136.91855709  .00001001  00000-0  80953-4 0  9998,2 53545  53.2166 357.9701 0001078  83.7451 276.3664 15.08839021 41830,6917.883,95.438,540.494,539.003,0.0
53545.0,STARLINK-4475,PAYLOAD,2023-05-17 02:48:52,15.08845609,0.0001049,53.2156,357.0763,82.7122,277.399,0.00016456,2.333e-05,0.0,0 STARLINK-4475,1 53545U 22101U   23137.11727351  .00002333  00000-0  16456-3 0  9997,2 53545  53.2156 357.0763 0001049  82.7122 277.3990 15.08845609 41179,6917.863,95.437,540.454,539.003,0.0
53545.0,STARLINK-4475,PAYLOAD,2023-05-17 05:59:39,15.0883183,0.0001121,53.2155,356.4831,79.6037,280.5081,-4.3712e-05,-9.83e-06,0.0,0 STARLINK-4475,1 53545U 22101U   23137.24976062 -.00000983  00000-0 -43712-4 0  9993,2 53545  53.2155 356.4831 0001121  79.6037 280.5081 15.08831830 41198,6917.905,95.438,540.546,538.995,0.0
53545.0,STARLINK-4475,PAYLOAD,2023-05-17 21:53:30,15.08842795,0.0001002,53.2158,353.5069,92.303,267.8077,0.00016532,2.344e-05,0.0,0 STARLINK-4475,1 53545U 22101U   23137.91215691  .00002344  00000-0  16532-3 0  9991,2 53545  53.2158 353.5069 0001002  92.3030 267.8077 15.08842795 41987,6917.872,95.437,540.43,539.044,0.0
53545.0,STARLINK-4475,PAYLOAD,2023-05-18 01:04:16,15.08847561,9.7e-05,53.2156,352.9126,94.5641,265.5462,0.00028808,4.301e-05,0.0,0 STARLINK-4475,1 53545U 22101U   23138.04463540  .00004301  00000-0  28808-3 0  9998,2 53545  53.2156 352.9126 0000970  94.5641 265.5462 15.08847561 41313,6917.857,95.437,540.393,539.051,0.0
53545.0,STARLINK-4475,PAYLOAD,2023-05-18 13:47:21,15.08841042,9.44e-05,53.2153,350.5339,92.9512,267.1588,0.00010485,1.381e-05,0.0,0 STARLINK-4475,1 53545U 22101U   23138.57455742  .00001381  00000-0  10485-3 0  9998,2 53545  53.2153 350.5339 0000944  92.9512 267.1588 15.08841042 42080,6917.877,95.437,540.395,539.089,0.0
53545.0,STARLINK-4475,PAYLOAD,2023-05-18 20:08:54,15.08842864,9.75e-05,53.2154,349.3439,96.7745,263.3358,0.00017134,2.44e-05,0.0,0 STARLINK-4475,1 53545U 22101U   23138.83951744  .00002440  00000-0  17134-3 0  9995,2 53545  53.2154 349.3439 0000975  96.7745 263.3358 15.08842864 42123,6917.872,95.437,540.411,539.062,0.0
53545.0,STARLINK-4475,PAYLOAD,2023-05-19 16:48:55,15.0884319,9.88e-05,53.2156,345.4782,100.0353,260.0751,0.00019729,2.854e-05,0.0,0 STARLINK-4475,1 53545U 22101U   23139.70063882  .00002854  00000-0  19729-3 0  9990,2 53545  53.2156 345.4782 0000988 100.0353 260.0751 15.08843190 41562,6917.871,95.437,540.419,539.052,0.0
53545.0,STARLINK-4475,PAYLOAD,2023-05-19 19:59:41,15.08843069,0.0001012,53.2156,344.8834,92.4866,267.6242,0.00016822,2.391e-05,0.0,0 STARLINK-4475,1 53545U 22101U   23139.83311887  .00002391  00000-0  16822-3 0  9992,2 53545  53.2156 344.8834 0001012  92.4866 267.6242 15.08843069 42277,6917.871,95.437,540.436,539.036,0.0
53545.0,STARLINK-4475,PAYLOAD,2023-05-20 19:50:27,15.08856412,0.0001029,53.2156,340.4202,104.3037,255.8069,0.00038641,5.87e-05,0.0,0 STARLINK-4475,1 53545U 22101U   23140.82671187  .00005870  00000-0  38641-3 0  9993,2 53545  53.2156 340.4202 0001029 104.3037 255.8069 15.08856412 42428,6917.83,95.437,540.407,538.983,0.0
53545.0,STARLINK-4475,PAYLOAD,2023-05-20 23:01:14,15.08859023,0.0001105,53.2153,339.826,99.9423,260.1694,0.00042475,6.482e-05,0.0,0 STARLINK-4475,1 53545U 22101U   23140.95919061  .00006482  00000-0  42475-3 0  9993,2 53545  53.2153 339.8260 0001105  99.9423 260.1694 15.08859023 41753,6917.822,95.436,540.452,538.923,0.0
